start=new Date('2023-04-24T00:00:00.000Z').valueOf();
sats=[{"MEAN_ELEMENT_THEORY":"SGP4","TIME_SYSTEM":"UTC","REV_AT_EPOCH":"130","ELEMENT_SET_NO":"999","TLE_LINE2":"2 55916  70.0006  77.2460 0003494 258.3257 186.8597 15.51248927  1301","EPOCH":"2023-04-23T22:00:00.999936","REF_FRAME":"TEME","LAUNCH_DATE":"2023-03-17","COUNTRY_CODE":"US","RCS_SIZE":"LARGE","MEAN_MOTION_DOT":"-0.00025621","ARG_OF_PERICENTER":"258.3257","GP_ID":"230664068","CLASSIFICATION_TYPE":"U","BSTAR":"-0.00043439000000","ECCENTRICITY":"0.00034940","CENTER_NAME":"EARTH","NORAD_CAT_ID":"55916","DECAY_DATE":null,"OBJECT_ID":"2023-037C","OBJECT_TYPE":"PAYLOAD","APOAPSIS":"415.453","RA_OF_ASC_NODE":"77.2460","SEMIMAJOR_AXIS":"6791.216","EPHEMERIS_TYPE":"0","FILE":"3892831","OBJECT_NAME":"STARLINK-5796","MEAN_MOTION_DDOT":"0.0000000000000","PERIAPSIS":"410.708","MEAN_ANOMALY":"186.8597","INCLINATION":"70.0006","TLE_LINE1":"1 55916U 23037C   23113.91667824 -.00025621  00000-0 -43439-3 0  9998","SITE":"AFWTR","MEAN_MOTION":"15.51248927","PERIOD":"92.828"},{"REF_FRAME":"TEME","TLE_LINE2":"2 55917  70.0008  77.2440 0003414 262.1286 184.7411 15.51255193  1304","EPOCH":"2023-04-23T22:00:00.999936","ELEMENT_SET_NO":"999","RCS_SIZE":"LARGE","LAUNCH_DATE":"2023-03-17","COUNTRY_CODE":"US","MEAN_ELEMENT_THEORY":"SGP4","TIME_SYSTEM":"UTC","REV_AT_EPOCH":"130","TLE_LINE1":"1 55917U 23037D   23113.91667824 -.00035784  00000-0 -60845-3 0  9990","INCLINATION":"70.0008","SITE":"AFWTR","MEAN_ANOMALY":"184.7411","PERIAPSIS":"410.744","MEAN_MOTION_DDOT":"0.0000000000000","FILE":"3892831","EPHEMERIS_TYPE":"0","OBJECT_NAME":"STARLINK-5855","PERIOD":"92.828","MEAN_MOTION":"15.51255193","NORAD_CAT_ID":"55917","CENTER_NAME":"EARTH","ECCENTRICITY":"0.00034140","BSTAR":"-0.00060845000000","CLASSIFICATION_TYPE":"U","GP_ID":"230662320","MEAN_MOTION_DOT":"-0.00035784","ARG_OF_PERICENTER":"262.1286","SEMIMAJOR_AXIS":"6791.197","RA_OF_ASC_NODE":"77.2440","OBJECT_TYPE":"PAYLOAD","APOAPSIS":"415.381","DECAY_DATE":null,"OBJECT_ID":"2023-037D"},{"APOAPSIS":"415.381","OBJECT_TYPE":"PAYLOAD","DECAY_DATE":null,"OBJECT_ID":"2023-037E","SEMIMAJOR_AXIS":"6791.201","RA_OF_ASC_NODE":"77.2448","GP_ID":"230663071","CLASSIFICATION_TYPE":"U","MEAN_MOTION_DOT":"-0.00033493","ARG_OF_PERICENTER":"258.8415","ECCENTRICITY":"0.00034100","CENTER_NAME":"EARTH","NORAD_CAT_ID":"55918","BSTAR":"-0.00056918000000","PERIOD":"92.828","MEAN_MOTION":"15.51254053","MEAN_MOTION_DDOT":"0.0000000000000","OBJECT_NAME":"STARLINK-5867","FILE":"3892831","EPHEMERIS_TYPE":"0","MEAN_ANOMALY":"187.1861","INCLINATION":"70.0008","TLE_LINE1":"1 55918U 23037E   23113.91667824 -.00033493  00000-0 -56918-3 0  9992","SITE":"AFWTR","PERIAPSIS":"410.750","TIME_SYSTEM":"UTC","REV_AT_EPOCH":"130","MEAN_ELEMENT_THEORY":"SGP4","COUNTRY_CODE":"US","LAUNCH_DATE":"2023-03-17","RCS_SIZE":"LARGE","ELEMENT_SET_NO":"999","TLE_LINE2":"2 55918  70.0008  77.2448 0003410 258.8415 187.1861 15.51254053  1305","EPOCH":"2023-04-23T22:00:00.999936","REF_FRAME":"TEME"},{"RCS_SIZE":"LARGE","LAUNCH_DATE":"2023-03-17","COUNTRY_CODE":"US","REF_FRAME":"TEME","ELEMENT_SET_NO":"999","TLE_LINE2":"2 55919  70.0010  77.2413 0003431 261.2309 187.3248 15.51255214  1305","EPOCH":"2023-04-23T22:00:00.999936","REV_AT_EPOCH":"130","TIME_SYSTEM":"UTC","MEAN_ELEMENT_THEORY":"SGP4","MEAN_MOTION":"15.51255214","PERIOD":"92.828","PERIAPSIS":"410.732","MEAN_ANOMALY":"187.3248","TLE_LINE1":"1 55919U 23037F   23113.91667824 -.00035908  00000-0 -61059-3 0  9998","SITE":"AFWTR","INCLINATION":"70.0010","EPHEMERIS_TYPE":"0","FILE":"3892831","OBJECT_NAME":"STARLINK-5871","MEAN_MOTION_DDOT":"0.0000000000000","RA_OF_ASC_NODE":"77.2413","SEMIMAJOR_AXIS":"6791.197","DECAY_DATE":null,"OBJECT_ID":"2023-037F","APOAPSIS":"415.392","OBJECT_TYPE":"PAYLOAD","BSTAR":"-0.00061059000000","ECCENTRICITY":"0.00034310","CENTER_NAME":"EARTH","NORAD_CAT_ID":"55919","ARG_OF_PERICENTER":"261.2309","MEAN_MOTION_DOT":"-0.00035908","GP_ID":"230663322","CLASSIFICATION_TYPE":"U"},{"ECCENTRICITY":"0.00032300","CENTER_NAME":"EARTH","NORAD_CAT_ID":"55920","BSTAR":"0.00003034600000","GP_ID":"230663568","CLASSIFICATION_TYPE":"U","ARG_OF_PERICENTER":"265.8183","MEAN_MOTION_DOT":"0.00003439","SEMIMAJOR_AXIS":"6737.224","RA_OF_ASC_NODE":"76.7606","APOAPSIS":"361.265","OBJECT_TYPE":"PAYLOAD","OBJECT_ID":"2023-037G","DECAY_DATE":null,"MEAN_ANOMALY":"94.2644","TLE_LINE1":"1 55920U 23037G   23113.87089954  .00003439  00000-0  30346-4 0  9995","INCLINATION":"70.0018","SITE":"AFWTR","PERIAPSIS":"356.913","MEAN_MOTION_DDOT":"0.0000000000000","FILE":"3892831","OBJECT_NAME":"STARLINK-5862","EPHEMERIS_TYPE":"0","PERIOD":"91.724","MEAN_MOTION":"15.69933675","MEAN_ELEMENT_THEORY":"SGP4","TIME_SYSTEM":"UTC","REV_AT_EPOCH":"601","REF_FRAME":"TEME","ELEMENT_SET_NO":"999","EPOCH":"2023-04-23T20:54:05.720256","TLE_LINE2":"2 55920  70.0018  76.7606 0003230 265.8183  94.2644 15.69933675  6012","RCS_SIZE":"LARGE","LAUNCH_DATE":"2023-03-17","COUNTRY_CODE":"US"},{"FILE":"3892831","EPHEMERIS_TYPE":"0","OBJECT_NAME":"STARLINK-5861","MEAN_MOTION_DDOT":"0.0000000000000","PERIAPSIS":"410.611","SITE":"AFWTR","TLE_LINE1":"1 55921U 23037H   23113.91667824 -.00029610  00000-0 -50264-3 0  9990","INCLINATION":"70.0005","MEAN_ANOMALY":"192.3818","MEAN_MOTION":"15.51251664","PERIOD":"92.828","MEAN_MOTION_DOT":"-0.00029610","ARG_OF_PERICENTER":"258.7046","CLASSIFICATION_TYPE":"U","GP_ID":"230662821","BSTAR":"-0.00050264000000","NORAD_CAT_ID":"55921","CENTER_NAME":"EARTH","ECCENTRICITY":"0.00036240","DECAY_DATE":null,"OBJECT_ID":"2023-037H","APOAPSIS":"415.534","OBJECT_TYPE":"PAYLOAD","RA_OF_ASC_NODE":"77.2388","SEMIMAJOR_AXIS":"6791.208","TLE_LINE2":"2 55921  70.0005  77.2388 0003624 258.7046 192.3818 15.51251664  1300","EPOCH":"2023-04-23T22:00:00.999936","ELEMENT_SET_NO":"999","REF_FRAME":"TEME","LAUNCH_DATE":"2023-03-17","COUNTRY_CODE":"US","RCS_SIZE":"LARGE","MEAN_ELEMENT_THEORY":"SGP4","REV_AT_EPOCH":"130","TIME_SYSTEM":"UTC"},{"INCLINATION":"70.0009","TLE_LINE1":"1 55922U 23037J   23113.91667824 -.00035869  00000-0 -60991-3 0  9992","SITE":"AFWTR","MEAN_ANOMALY":"188.2207","PERIAPSIS":"410.686","MEAN_MOTION_DDOT":"0.0000000000000","FILE":"3892831","OBJECT_NAME":"STARLINK-5863","EPHEMERIS_TYPE":"0","PERIOD":"92.828","MEAN_MOTION":"15.51254899","NORAD_CAT_ID":"55922","CENTER_NAME":"EARTH","ECCENTRICITY":"0.00035000","BSTAR":"-0.00060991000000","CLASSIFICATION_TYPE":"U","GP_ID":"230662571","ARG_OF_PERICENTER":"262.0213","MEAN_MOTION_DOT":"-0.00035869","SEMIMAJOR_AXIS":"6791.198","RA_OF_ASC_NODE":"77.2393","OBJECT_TYPE":"PAYLOAD","APOAPSIS":"415.440","DECAY_DATE":null,"OBJECT_ID":"2023-037J","REF_FRAME":"TEME","TLE_LINE2":"2 55922  70.0009  77.2393 0003500 262.0213 188.2207 15.51254899  1307","EPOCH":"2023-04-23T22:00:00.999936","ELEMENT_SET_NO":"999","RCS_SIZE":"LARGE","LAUNCH_DATE":"2023-03-17","COUNTRY_CODE":"US","MEAN_ELEMENT_THEORY":"SGP4","TIME_SYSTEM":"UTC","REV_AT_EPOCH":"130"},{"REF_FRAME":"TEME","ELEMENT_SET_NO":"999","TLE_LINE2":"2 55923  70.0005  77.2407 0003415 259.4413 189.9597 15.51247790  1309","EPOCH":"2023-04-23T22:00:00.999936","RCS_SIZE":"LARGE","LAUNCH_DATE":"2023-03-17","COUNTRY_CODE":"US","MEAN_ELEMENT_THEORY":"SGP4","TIME_SYSTEM":"UTC","REV_AT_EPOCH":"130","MEAN_ANOMALY":"189.9597","SITE":"AFWTR","TLE_LINE1":"1 55923U 23037K   23113.91667824 -.00023320  00000-0 -39502-3 0  9996","INCLINATION":"70.0005","PERIAPSIS":"410.765","MEAN_MOTION_DDOT":"0.0000000000000","FILE":"3892831","EPHEMERIS_TYPE":"0","OBJECT_NAME":"STARLINK-5854","PERIOD":"92.828","MEAN_MOTION":"15.51247790","ECCENTRICITY":"0.00034150","CENTER_NAME":"EARTH","NORAD_CAT_ID":"55923","BSTAR":"-0.00039502000000","GP_ID":"230663823","CLASSIFICATION_TYPE":"U","ARG_OF_PERICENTER":"259.4413","MEAN_MOTION_DOT":"-0.00023320","SEMIMAJOR_AXIS":"6791.219","RA_OF_ASC_NODE":"77.2407","APOAPSIS":"415.403","OBJECT_TYPE":"PAYLOAD","OBJECT_ID":"2023-037K","DECAY_DATE":null},{"MEAN_MOTION_DDOT":"0.0000000000000","FILE":"3892831","EPHEMERIS_TYPE":"0","OBJECT_NAME":"STARLINK-5849","MEAN_ANOMALY":"87.1374","TLE_LINE1":"1 55924U 23037L   23113.86985555 -.00087048  00000-0 -72901-3 0  9992","SITE":"AFWTR","INCLINATION":"70.0024","PERIAPSIS":"356.727","PERIOD":"91.723","MEAN_MOTION":"15.69945690","GP_ID":"230664069","CLASSIFICATION_TYPE":"U","ARG_OF_PERICENTER":"272.9426","MEAN_MOTION_DOT":"-0.00087048","ECCENTRICITY":"0.00034550","CENTER_NAME":"EARTH","NORAD_CAT_ID":"55924","BSTAR":"-0.00072901000000","APOAPSIS":"361.382","OBJECT_TYPE":"PAYLOAD","OBJECT_ID":"2023-037L","DECAY_DATE":null,"SEMIMAJOR_AXIS":"6737.189","RA_OF_ASC_NODE":"76.7541","ELEMENT_SET_NO":"999","EPOCH":"2023-04-23T20:52:35.519520","TLE_LINE2":"2 55924  70.0024  76.7541 0003455 272.9426  87.1374 15.69945690  6010","REF_FRAME":"TEME","COUNTRY_CODE":"US","LAUNCH_DATE":"2023-03-17","RCS_SIZE":"LARGE","MEAN_ELEMENT_THEORY":"SGP4","REV_AT_EPOCH":"601","TIME_SYSTEM":"UTC"},{"COUNTRY_CODE":"US","LAUNCH_DATE":"2023-03-17","RCS_SIZE":"LARGE","TLE_LINE2":"2 55925  70.0008  77.2378 0003404 258.7921 193.1372 15.51253176  1308","EPOCH":"2023-04-23T22:00:00.999936","ELEMENT_SET_NO":"999","REF_FRAME":"TEME","TIME_SYSTEM":"UTC","REV_AT_EPOCH":"130","MEAN_ELEMENT_THEORY":"SGP4","MEAN_MOTION":"15.51253176","PERIOD":"92.828","EPHEMERIS_TYPE":"0","FILE":"3892831","OBJECT_NAME":"STARLINK-5922","MEAN_MOTION_DDOT":"0.0000000000000","PERIAPSIS":"410.756","SITE":"AFWTR","TLE_LINE1":"1 55925U 23037M   23113.91667824 -.00032118  00000-0 -54562-3 0  9996","INCLINATION":"70.0008","MEAN_ANOMALY":"193.1372","DECAY_DATE":null,"OBJECT_ID":"2023-037M","APOAPSIS":"415.380","OBJECT_TYPE":"PAYLOAD","RA_OF_ASC_NODE":"77.2378","SEMIMAJOR_AXIS":"6791.203","ARG_OF_PERICENTER":"258.7921","MEAN_MOTION_DOT":"-0.00032118","CLASSIFICATION_TYPE":"U","GP_ID":"230662321","BSTAR":"-0.00054562000000","NORAD_CAT_ID":"55925","CENTER_NAME":"EARTH","ECCENTRICITY":"0.00034040"}];
